{
  "type": "FeatureCollection",
  "features": [
    {
      "type": "Feature",
      "properties": {
        "norad_id": 39766,
        "name": "ALOS-2",
        "group": "resource",
        "lat": 68.50748490915718,
        "lon": 63.957072663568276,
        "alt_km": 623.5099439346895,
        "timestamp": "2025-12-15T20:48:53.542216+00:00",
        "meta_object_name": "ALOS-2",
        "meta_object_id": "2014-029A",
        "meta_epoch": "2025-12-15T10:45:38.494080",
        "meta_mean_motion": 14.7946645,
        "meta_eccentricity": 0.0001396,
        "meta_inclination": 97.9228,
        "meta_ra_of_asc_node": 84.2561,
        "meta_arg_of_pericenter": 102.692,
        "meta_mean_anomaly": 257.4448,
        "meta_ephemeris_type": 0,
        "meta_classification_type": "U",
        "meta_norad_cat_id": 39766,
        "meta_element_set_no": 999,
        "meta_rev_at_epoch": 62441,
        "meta_bstar": 0.00030229,
        "meta_mean_motion_dot": 2.206e-05,
        "meta_mean_motion_ddot": 0,
        "tle_line1": "1 39766U 14029A   25349.44836220  .00002206  00000+0  30229-3 0  9997",
        "tle_line2": "2 39766  97.9228  84.2561 0001396 102.6920 257.4448 14.79466450624412"
      },
      "geometry": {
        "type": "Point",
        "coordinates": [
          63.957072663568276,
          68.50748490915718
        ]
      }
    },
    {
      "type": "Feature",
      "properties": {
        "norad_id": 40010,
        "name": "KAZEOSAT 2",
        "group": "resource",
        "lat": 43.59624161648706,
        "lon": -173.23579809785377,
        "alt_km": 614.2652480278866,
        "timestamp": "2025-12-15T20:48:53.542227+00:00",
        "meta_object_name": "KAZEOSAT 2",
        "meta_object_id": "2014-033A",
        "meta_epoch": "2025-12-14T21:58:44.957568",
        "meta_mean_motion": 14.85171782,
        "meta_eccentricity": 0.00078533,
        "meta_inclination": 97.5508,
        "meta_ra_of_asc_node": 193.1179,
        "meta_arg_of_pericenter": 199.1027,
        "meta_mean_anomaly": 160.9895,
        "meta_ephemeris_type": 0,
        "meta_classification_type": "U",
        "meta_norad_cat_id": 40010,
        "meta_element_set_no": 999,
        "meta_rev_at_epoch": 62160,
        "meta_bstar": 0.00010301089,
        "meta_mean_motion_dot": 8.32e-06,
        "meta_mean_motion_ddot": 0,
        "tle_line1": "1 40010U 14033A   25348.91579812  .00000832  00000+0  10301-3 0  9990",
        "tle_line2": "2 40010  97.5508 193.1179 0007853 199.1027 160.9895 14.85171782621601"
      },
      "geometry": {
        "type": "Point",
        "coordinates": [
          -173.23579809785377,
          43.59624161648706
        ]
      }
    },
    {
      "type": "Feature",
      "properties": {
        "norad_id": 40011,
        "name": "HODOYOSHI-4",
        "group": "resource",
        "lat": 21.779530650938142,
        "lon": 1.6314058690525421,
        "alt_km": 591.7590783845444,
        "timestamp": "2025-12-15T20:48:53.542237+00:00",
        "meta_object_name": "HODOYOSHI-4",
        "meta_object_id": "2014-033B",
        "meta_epoch": "2025-12-14T23:07:06.907296",
        "meta_mean_motion": 14.87497059,
        "meta_eccentricity": 0.00232773,
        "meta_inclination": 97.5417,
        "meta_ra_of_asc_node": 177.7379,
        "meta_arg_of_pericenter": 192.8079,
        "meta_mean_anomaly": 167.255,
        "meta_ephemeris_type": 0,
        "meta_classification_type": "U",
        "meta_norad_cat_id": 40011,
        "meta_element_set_no": 999,
        "meta_rev_at_epoch": 62141,
        "meta_bstar": 0.00038039916,
        "meta_mean_motion_dot": 3.413e-05,
        "meta_mean_motion_ddot": 0,
        "tle_line1": "1 40011U 14033B   25348.96327439  .00003413  00000+0  38040-3 0  9990",
        "tle_line2": "2 40011  97.5417 177.7379 0023277 192.8079 167.2550 14.87497059621413"
      },
      "geometry": {
        "type": "Point",
        "coordinates": [
          1.6314058690525421,
          21.779530650938142
        ]
      }
    },
    {
      "type": "Feature",
      "properties": {
        "norad_id": 40013,
        "name": "DEIMOS-2",
        "group": "resource",
        "lat": 16.72636390779771,
        "lon": -136.73761352045022,
        "alt_km": 589.2701276318758,
        "timestamp": "2025-12-15T20:48:53.542247+00:00",
        "meta_object_name": "DEIMOS-2",
        "meta_object_id": "2014-033D",
        "meta_epoch": "2025-12-14T22:13:12.856800",
        "meta_mean_motion": 14.92982202,
        "meta_eccentricity": 9.308e-05,
        "meta_inclination": 97.6064,
        "meta_ra_of_asc_node": 224.6538,
        "meta_arg_of_pericenter": 110.2638,
        "meta_mean_anomaly": 249.8682,
        "meta_ephemeris_type": 0,
        "meta_classification_type": "U",
        "meta_norad_cat_id": 40013,
        "meta_element_set_no": 999,
        "meta_rev_at_epoch": 61022,
        "meta_bstar": 0.00012380869,
        "meta_mean_motion_dot": 1.232e-05,
        "meta_mean_motion_ddot": 0,
        "tle_line1": "1 40013U 14033D   25348.92584325  .00001232  00000+0  12381-3 0  9994",
        "tle_line2": "2 40013  97.6064 224.6538 0000930 110.2638 249.8682 14.92982202610224"
      },
      "geometry": {
        "type": "Point",
        "coordinates": [
          -136.73761352045022,
          16.72636390779771
        ]
      }
    },
    {
      "type": "Feature",
      "properties": {
        "norad_id": 40015,
        "name": "HODOYOSHI-3",
        "group": "resource",
        "lat": 52.62922660912745,
        "lon": 145.47132612917983,
        "alt_km": 631.547539595861,
        "timestamp": "2025-12-15T20:48:53.542257+00:00",
        "meta_object_name": "HODOYOSHI-3",
        "meta_object_id": "2014-033F",
        "meta_epoch": "2025-12-14T21:55:52.740768",
        "meta_mean_motion": 14.84814917,
        "meta_eccentricity": 0.00319416,
        "meta_inclination": 97.6196,
        "meta_ra_of_asc_node": 154.6544,
        "meta_arg_of_pericenter": 240.4959,
        "meta_mean_anomaly": 119.307,
        "meta_ephemeris_type": 0,
        "meta_classification_type": "U",
        "meta_norad_cat_id": 40015,
        "meta_element_set_no": 999,
        "meta_rev_at_epoch": 62027,
        "meta_bstar": 0.00016088812,
        "meta_mean_motion_dot": 1.325e-05,
        "meta_mean_motion_ddot": 0,
        "tle_line1": "1 40015U 14033F   25348.91380487  .00001325  00000+0  16089-3 0  9990",
        "tle_line2": "2 40015  97.6196 154.6544 0031941 240.4959 119.3070 14.84814917620275"
      },
      "geometry": {
        "type": "Point",
        "coordinates": [
          145.47132612917983,
          52.62922660912745
        ]
      }
    },
    {
      "type": "Feature",
      "properties": {
        "norad_id": 40053,
        "name": "SPOT 7",
        "group": "resource",
        "lat": -45.03185120856921,
        "lon": -136.31648487361159,
        "alt_km": 698.3799042046576,
        "timestamp": "2025-12-15T20:48:53.542267+00:00",
        "meta_object_name": "SPOT 7",
        "meta_object_id": "2014-034A",
        "meta_epoch": "2025-12-14T22:24:50.051232",
        "meta_mean_motion": 14.60738036,
        "meta_eccentricity": 0.00015748,
        "meta_inclination": 98.0906,
        "meta_ra_of_asc_node": 50.9588,
        "meta_arg_of_pericenter": 87.3945,
        "meta_mean_anomaly": 272.7436,
        "meta_ephemeris_type": 0,
        "meta_classification_type": "U",
        "meta_norad_cat_id": 40053,
        "meta_element_set_no": 999,
        "meta_rev_at_epoch": 61023,
        "meta_bstar": 0.00017571236,
        "meta_mean_motion_dot": 8.11e-06,
        "meta_mean_motion_ddot": 0,
        "tle_line1": "1 40053U 14034A   25348.93391263  .00000811  00000+0  17571-3 0  9995",
        "tle_line2": "2 40053  98.0906  50.9588 0001574  87.3945 272.7436 14.60738036610235"
      },
      "geometry": {
        "type": "Point",
        "coordinates": [
          -136.31648487361159,
          -45.03185120856921
        ]
      }
    },
    {
      "type": "Feature",
      "properties": {
        "norad_id": 40072,
        "name": "SKYSAT-B",
        "group": "resource",
        "lat": 77.30105283103774,
        "lon": 154.47979942121984,
        "alt_km": 595.643413675537,
        "timestamp": "2025-12-15T20:48:53.542277+00:00",
        "meta_object_name": "SKYSAT-B",
        "meta_object_id": "2014-037D",
        "meta_epoch": "2025-12-14T20:08:59.406144",
        "meta_mean_motion": 14.87335626,
        "meta_eccentricity": 0.00063174,
        "meta_inclination": 98.3608,
        "meta_ra_of_asc_node": 292.6565,
        "meta_arg_of_pericenter": 143.8455,
        "meta_mean_anomaly": 216.3188,
        "meta_ephemeris_type": 0,
        "meta_classification_type": "U",
        "meta_norad_cat_id": 40072,
        "meta_element_set_no": 999,
        "meta_rev_at_epoch": 61855,
        "meta_bstar": 0.00016130482,
        "meta_mean_motion_dot": 1.396e-05,
        "meta_mean_motion_ddot": 0,
        "tle_line1": "1 40072U 14037D   25348.83957646  .00001396  00000+0  16130-3 0  9990",
        "tle_line2": "2 40072  98.3608 292.6565 0006317 143.8455 216.3188 14.87335626618550"
      },
      "geometry": {
        "type": "Point",
        "coordinates": [
          154.47979942121984,
          77.30105283103774
        ]
      }
    }
  ]
}